[{"OBJECT_NAME":"FENGYUN 1C DEB","OBJECT_ID":"1999-025BMM","EPOCH":"2026-04-26T07:08:18.528288","MEAN_MOTION":14.10023741,"ECCENTRICITY":0.02693683,"INCLINATION":99.3163,"RA_OF_ASC_NODE":303.2446,"ARG_OF_PERICENTER":328.7275,"MEAN_ANOMALY":29.8107,"EPHEMERIS_TYPE":0,"CLASSIFICATION_TYPE":"U","NORAD_CAT_ID":31255,"ELEMENT_SET_NO":999,"REV_AT_EPOCH":98697,"BSTAR":0.00021356894,"MEAN_MOTION_DOT":4.75e-6,"MEAN_MOTION_DDOT":0},{"OBJECT_NAME":"FENGYUN 1C DEB","OBJECT_ID":"1999-025BMN","EPOCH":"2026-04-25T07:07:42.675744","MEAN_MOTION":14.0525659,"ECCENTRICITY":0.0304142,"INCLINATION":98.6737,"RA_OF_ASC_NODE":322.2801,"ARG_OF_PERICENTER":98.2722,"MEAN_ANOMALY":265.3052,"EPHEMERIS_TYPE":0,"CLASSIFICATION_TYPE":"U","NORAD_CAT_ID":31256,"ELEMENT_SET_NO":999,"REV_AT_EPOCH":66856,"BSTAR":0.0024240973,"MEAN_MOTION_DOT":5.907e-5,"MEAN_MOTION_DDOT":0},{"OBJECT_NAME":"FENGYUN 1C DEB","OBJECT_ID":"1999-025BMT","EPOCH":"2026-04-26T08:30:23.657472","MEAN_MOTION":14.41009735,"ECCENTRICITY":0.00495411,"INCLINATION":99.0307,"RA_OF_ASC_NODE":82.0495,"ARG_OF_PERICENTER":194.274,"MEAN_ANOMALY":165.705,"EPHEMERIS_TYPE":0,"CLASSIFICATION_TYPE":"U","NORAD_CAT_ID":31261,"ELEMENT_SET_NO":999,"REV_AT_EPOCH":99288,"BSTAR":0.00070474734,"MEAN_MOTION_DOT":2.25e-5,"MEAN_MOTION_DDOT":0},{"OBJECT_NAME":"FENGYUN 1C DEB","OBJECT_ID":"1999-025BMU","EPOCH":"2026-04-24T04:48:36.567936","MEAN_MOTION":14.1913425,"ECCENTRICITY":0.00556686,"INCLINATION":98.9921,"RA_OF_ASC_NODE":204.5678,"ARG_OF_PERICENTER":81.526,"MEAN_ANOMALY":309.1024,"EPHEMERIS_TYPE":0,"CLASSIFICATION_TYPE":"U","NORAD_CAT_ID":31262,"ELEMENT_SET_NO":999,"REV_AT_EPOCH":97587,"BSTAR":0.00099340684,"MEAN_MOTION_DOT":2.066e-5,"MEAN_MOTION_DDOT":0},{"OBJECT_NAME":"FENGYUN 1C DEB","OBJECT_ID":"1999-025BMW","EPOCH":"2026-04-25T11:55:26.772960","MEAN_MOTION":14.18917808,"ECCENTRICITY":0.00011585,"INCLINATION":99.1074,"RA_OF_ASC_NODE":21.1205,"ARG_OF_PERICENTER":42.0852,"MEAN_ANOMALY":138.7281,"EPHEMERIS_TYPE":0,"CLASSIFICATION_TYPE":"U","NORAD_CAT_ID":31264,"ELEMENT_SET_NO":999,"REV_AT_EPOCH":98325,"BSTAR":0.00040487833,"MEAN_MOTION_DOT":7.97e-6,"MEAN_MOTION_DDOT":0},{"OBJECT_NAME":"FENGYUN 1C DEB","OBJECT_ID":"1999-025BNA","EPOCH":"2026-04-19T07:55:00.101856","MEAN_MOTION":14.06719144,"ECCENTRICITY":0.00496722,"INCLINATION":98.7403,"RA_OF_ASC_NODE":152.3289,"ARG_OF_PERICENTER":183.2715,"MEAN_ANOMALY":176.8137,"EPHEMERIS_TYPE":0,"CLASSIFICATION_TYPE":"U","NORAD_CAT_ID":31268,"ELEMENT_SET_NO":999,"REV_AT_EPOCH":63826,"BSTAR":0.00059772094,"MEAN_MOTION_DOT":9.62e-6,"MEAN_MOTION_DDOT":0},{"OBJECT_NAME":"FENGYUN 1C DEB","OBJECT_ID":"1999-025BNB","EPOCH":"2026-04-26T14:31:38.161920","MEAN_MOTION":14.45694374,"ECCENTRICITY":0.0233452,"INCLINATION":98.1688,"RA_OF_ASC_NODE":354.7537,"ARG_OF_PERICENTER":223.9017,"MEAN_ANOMALY":164.3666,"EPHEMERIS_TYPE":0,"CLASSIFICATION_TYPE":"U","NORAD_CAT_ID":31269,"ELEMENT_SET_NO":999,"REV_AT_EPOCH":98434,"BSTAR":0.0010251,"MEAN_MOTION_DOT":5.036e-5,"MEAN_MOTION_DDOT":0},{"OBJECT_NAME":"FENGYUN 1C DEB","OBJECT_ID":"1999-025BNE","EPOCH":"2026-04-24T09:43:36.568704","MEAN_MOTION":14.23261376,"ECCENTRICITY":0.01070118,"INCLINATION":99.0777,"RA_OF_ASC_NODE":355.451,"ARG_OF_PERICENTER":93.0748,"MEAN_ANOMALY":268.268,"EPHEMERIS_TYPE":0,"CLASSIFICATION_TYPE":"U","NORAD_CAT_ID":31272,"ELEMENT_SET_NO":999,"REV_AT_EPOCH":98876,"BSTAR":0.00032940797,"MEAN_MOTION_DOT":7.45e-6,"MEAN_MOTION_DDOT":0},{"OBJECT_NAME":"FENGYUN 1C DEB","OBJECT_ID":"1999-025BNG","EPOCH":"2026-04-26T08:21:20.372544","MEAN_MOTION":13.85958504,"ECCENTRICITY":0.024196,"INCLINATION":99.0139,"RA_OF_ASC_NODE":295.695,"ARG_OF_PERICENTER":106.628,"MEAN_ANOMALY":256.1591,"EPHEMERIS_TYPE":0,"CLASSIFICATION_TYPE":"U","NORAD_CAT_ID":31274,"ELEMENT_SET_NO":999,"REV_AT_EPOCH":96071,"BSTAR":0.00055767273,"MEAN_MOTION_DOT":7.66e-6,"MEAN_MOTION_DDOT":0},{"OBJECT_NAME":"FENGYUN 1C DEB","OBJECT_ID":"1999-025BNM","EPOCH":"2026-04-25T05:56:55.550688","MEAN_MOTION":14.26673558,"ECCENTRICITY":0.0074166,"INCLINATION":98.5154,"RA_OF_ASC_NODE":124.9327,"ARG_OF_PERICENTER":146.531,"MEAN_ANOMALY":214.059,"EPHEMERIS_TYPE":0,"CLASSIFICATION_TYPE":"U","NORAD_CAT_ID":31279,"ELEMENT_SET_NO":999,"REV_AT_EPOCH":99132,"BSTAR":0.00036433,"MEAN_MOTION_DOT":8.65e-6,"MEAN_MOTION_DDOT":0},{"OBJECT_NAME":"FENGYUN 1C DEB","OBJECT_ID":"1999-025BNP","EPOCH":"2026-04-26T09:36:19.470240","MEAN_MOTION":15.29202384,"ECCENTRICITY":0.00885452,"INCLINATION":98.398,"RA_OF_ASC_NODE":272.2428,"ARG_OF_PERICENTER":350.6003,"MEAN_ANOMALY":9.3572,"EPHEMERIS_TYPE":0,"CLASSIFICATION_TYPE":"U","NORAD_CAT_ID":31281,"ELEMENT_SET_NO":999,"REV_AT_EPOCH":1749,"BSTAR":0.0011956984,"MEAN_MOTION_DOT":0.00038214,"MEAN_MOTION_DDOT":0},{"OBJECT_NAME":"FENGYUN 1C DEB","OBJECT_ID":"1999-025BNQ","EPOCH":"2026-04-23T01:14:55.051584","MEAN_MOTION":14.43700734,"ECCENTRICITY":0.01264309,"INCLINATION":99.2232,"RA_OF_ASC_NODE":46.1562,"ARG_OF_PERICENTER":259.0602,"MEAN_ANOMALY":99.6341,"EPHEMERIS_TYPE":0,"CLASSIFICATION_TYPE":"U","NORAD_CAT_ID":31282,"ELEMENT_SET_NO":999,"REV_AT_EPOCH":99015,"BSTAR":0.00010185765,"MEAN_MOTION_DOT":3.23e-6,"MEAN_MOTION_DDOT":0}]
