FENGYUN 1C DEB          
1 31255U 99025BMM 26116.29743667  .00000475  00000+0  21357-3 0  9997
2 31255  99.3163 303.2446 0269368 328.7275  29.8107 14.10023741986978
FENGYUN 1C DEB          
1 31256U 99025BMN 26115.29702171  .00005907  00000+0  24241-2 0  9991
2 31256  98.6737 322.2801 0304142  98.2722 265.3052 14.05256590668562
FENGYUN 1C DEB          
1 31261U 99025BMT 26116.35444048  .00002250  00000+0  70475-3 0  9990
2 31261  99.0307  82.0495 0049541 194.2740 165.7050 14.41009735992885
FENGYUN 1C DEB          
1 31262U 99025BMU 26114.20042324  .00002066  00000+0  99341-3 0  9992
2 31262  98.9921 204.5678 0055668  81.5260 309.1024 14.19134250975873
FENGYUN 1C DEB          
1 31264U 99025BMW 26115.49683765  .00000797  00000+0  40488-3 0  9993
2 31264  99.1074  21.1205 0001158  42.0852 138.7281 14.18917808983259
FENGYUN 1C DEB          
1 31268U 99025BNA 26109.32986229  .00000962  00000+0  59772-3 0  9993
2 31268  98.7403 152.3289 0049672 183.2715 176.8137 14.06719144638263
FENGYUN 1C DEB          
1 31269U 99025BNB 26116.60530280  .00005036  00000+0  10251-2 0  9990
2 31269  98.1688 354.7537 0233452 223.9017 164.3666 14.45694374984347
FENGYUN 1C DEB          
1 31272U 99025BNE 26114.40528436  .00000745  00000+0  32941-3 0  9993
2 31272  99.0777 355.4510 0107011  93.0748 268.2680 14.23261376988765
FENGYUN 1C DEB          
1 31274U 99025BNG 26116.34815246  .00000766  00000+0  55767-3 0  9992
2 31274  99.0139 295.6950 0241960 106.6280 256.1591 13.85958504960711
FENGYUN 1C DEB          
1 31279U 99025BNM 26115.24786517  .00000865  00000+0  36433-3 0  9992
2 31279  98.5154 124.9327 0074166 146.5310 214.0590 14.26673558991320
FENGYUN 1C DEB          
1 31281U 99025BNP 26116.40022535  .00038214  00000+0  11957-2 0  9999
2 31281  98.3980 272.2428 0088545 350.6003   9.3572 15.29202384 17491
FENGYUN 1C DEB          
1 31282U 99025BNQ 26113.05202606  .00000323  00000+0  10186-3 0  9991
2 31282  99.2232  46.1562 0126430 259.0602  99.6341 14.43700734990158
